BEIDOU-2 IGSO-5         
1 37948U 11073A   26169.66754444 -.00000192  00000+0  00000+0 0  9998
2 37948  47.6748 271.5267 0113971 221.7702 105.6518  1.00272695 53143
LUCH-5A                 
1 37951U 11074B   26170.58890955 -.00000059  00000+0  00000+0 0  9996
2 37951   8.7610  73.7726 0002369  26.6341 186.3456  1.00270759 53072
BEIDOU-2 G5             
1 38091U 12008A   26170.94380128  .00000051  00000+0  00000+0 0  9997
2 38091   3.5816  69.6864 0009047 273.1123 323.7890  1.00272661 52390
BEIDOU-2 M3             
1 38250U 12018A   26170.87348642 -.00000087  00000+0  00000+0 0  9992
2 38250  55.7553 304.7847 0020162 273.6616  86.1003  1.86229594 95991
BEIDOU-2 M4             
1 38251U 12018B   26170.80579080 -.00000086  00000+0  00000+0 0  9997
2 38251  55.6555 304.0008 0011344 275.1430  84.7206  1.86229250 95996
SES-5                   
1 38652U 12036A   26171.10782341  .00000029  00000+0  00000+0 0  9998
2 38652   0.0456 317.0080 0001850 132.7689 222.3295  1.00272034 44484
BEIDOU-2 M6             
1 38775U 12050B   26169.97856022 -.00000060  00000+0  00000+0 0  9996
2 38775  56.5458  62.8350 0013637 357.7339   2.3019  1.86230903 93342
GSAT-10                 
1 38779U 12051B   26171.05199051 -.00000170  00000+0  00000+0 0  9997
2 38779   0.0727 261.4470 0007824 186.7659 281.7827  1.00272199 50123
NAVSTAR 67 (USA 239)    
1 38833U 12053A   26170.80902753  .00000055  00000+0  00000+0 0  9994
2 38833  53.5865 143.4919 0180466  65.7943 296.0500  2.00567498 99493
GSAT0103 (GALILEO-FM3)  
1 38857U 12055A   26168.47561804 -.00000011  00000+0  00000+0 0  9993
2 38857  55.8068 101.5377 0004771 306.3432  53.5821  1.70473345 85011
BEIDOU-2 G6             
1 38953U 12059A   26170.70976387 -.00000183  00000+0  00000+0 0  9999
2 38953   4.4288  73.4979 0009632 324.3686 209.6174  1.00271500 49937
LUCH-5B                 
1 38977U 12061A   26169.89176601 -.00000148  00000+0  00000+0 0  9998
2 38977  10.4892  49.8655 0002465 150.1855  11.8366  1.00272094 49620
COSMOS 2485 [GLONASS-M] 
1 39155U 13019A   26167.91000455 -.00000020  00000+0  00000+0 0  9994
2 39155  65.4195  73.6140 0023135 234.1379 125.6814  2.13103258102273
NAVSTAR 68 (USA 242)    
1 39166U 13023A   26170.67606648 -.00000052  00000+0  00000+0 0  9999
2 39166  54.5020 268.8722 0141504  51.0528 310.2374  2.00563426 95938
IRNSS-1A                
1 39199U 13034A   26169.89544831  .00000051  00000+0  00000+0 0  9992
2 39199  35.7241  63.8469 0017589 183.2529  37.3106  1.00275723 47380
NAVSTAR 69 (USA 248)    
1 39533U 14008A   26171.17631965  .00000063  00000+0  00000+0 0  9998
2 39533  53.6552 149.1977 0084223 231.3206 127.9005  2.00559961 89744
ASTRA 5B                
1 39617U 14011B   26171.25405019  .00000132  00000+0  00000+0 0  9990
2 39617   0.0636 312.5658 0002053 113.4731 317.3786  1.00268959 44691
COSMOS 2492 [GLONASS-M] 
1 39620U 14012A   26169.27664962 -.00000055  00000+0  00000+0 0  9993
2 39620  65.2971 313.8989 0010348 324.5914  35.3281  2.13103143 95269
IRNSS-1B                
1 39635U 14017A   26170.76140735  .00000109  00000+0  00000+0 0  9996
2 39635  28.9179 240.3593 0023150 189.6008 167.3236  1.00277178 44811
LUCH-5V                 
1 39727U 14023A   26170.76914560 -.00000276  00000+0  00000+0 0  9996
2 39727   5.1398  69.7202 0001891  49.9743 159.9136  1.00273433 44383
NAVSTAR 70 (USA 251)    
1 39741U 14026A   26170.95326937 -.00000090  00000+0  00000+0 0  9995
2 39741  56.4969 331.4097 0038155 326.5311  33.2215  2.00560761 88598
COSMOS 2500 [GLONASS-M] 
1 40001U 14032A   26170.85415876 -.00000060  00000+0  00000+0 0  9990
2 40001  65.2308 313.5924 0007431 184.8024 175.1825  2.13105731 93510
NAVSTAR 71 (USA 256)    
1 40105U 14045A   26171.04506235 -.00000025  00000+0  00000+0 0  9992
2 40105  55.3550  88.3511 0033436 118.2269 242.1176  2.00558575 86137
GSAT0201 (GALILEO 5)    
1 40128U 14050A   26170.57286915 -.00000074  00000+0  00000+0 0  9994
2 40128  48.8729 273.3385 1674922 179.4838 180.7636  1.85520003 78366
GSAT0202 (GALILEO 6)    
1 40129U 14050B   26170.82839629 -.00000076  00000+0  00000+0 0  9991
2 40129  48.8892 272.4135 1676188 180.2230 179.7415  1.85520639 80533
IRNSS-1C                
1 40269U 14061A   26170.79126231 -.00000168  00000+0  00000+0 0  9994
2 40269   6.5240  88.8821 0022682   2.7462 184.1889  1.00268918 42714
NAVSTAR 72 (USA 258)    
1 40294U 14068A   26170.91475241 -.00000091  00000+0  00000+0 0  9996
2 40294  56.9895  30.8495 0067113  70.6969 290.0787  2.00576333 85260
COSMOS 2501 [GLONASS-K] 
1 40315U 14075A   26171.11625181  .00000063  00000+0  00000+0 0  9999
2 40315  63.6165 190.2706 0022633 212.5171 147.3840  2.13101226 89914
NAVSTAR 73 (USA 260)    
1 40534U 15013A   26171.05406355  .00000035  00000+0  00000+0 0  9997
2 40534  53.1677 204.0589 0109601  40.1558 320.7059  2.00551222 81885
GSAT0203 (GALILEO 7)    
1 40544U 15017A   26168.79938999 -.00000091  00000+0  00000+0 0  9996
2 40544  56.7854 341.5787 0002098 276.4201  83.5494  1.70476090 69215
GSAT0204 (GALILEO 8)    
1 40545U 15017B   26170.22835249 -.00000094  00000+0  00000+0 0  9995
2 40545  56.7938 341.5583 0001942 246.6758 113.2973  1.70475686 32286
